start=new Date('2023-07-01T00:00:00.000Z').valueOf();
sats=[{"RA_OF_ASC_NODE":"126.5860","CLASSIFICATION_TYPE":"U","REV_AT_EPOCH":"12126","RCS_SIZE":"LARGE","BSTAR":"0.00108400000000","OBJECT_ID":"2021-036C","COUNTRY_CODE":"US","LAUNCH_DATE":"2021-04-29","OBJECT_NAME":"STARLINK-2543","SEMIMAJOR_AXIS":"6925.292","GP_ID":"234620657","DECAY_DATE":null,"ELEMENT_SET_NO":"999","REF_FRAME":"TEME","APOAPSIS":"547.923","MEAN_ELEMENT_THEORY":"SGP4","PERIAPSIS":"546.391","MEAN_ANOMALY":"263.4512","SITE":"AFETR","FILE":"3945582","EPOCH":"2023-06-29T02:58:53.498784","TLE_LINE2":"2 48278  53.0529 126.5860 0001106  96.6603 263.4512 15.06418554121265","MEAN_MOTION_DOT":"0.00015910","NORAD_CAT_ID":"48278","TIME_SYSTEM":"UTC","CENTER_NAME":"EARTH","ECCENTRICITY":"0.00011060","EPHEMERIS_TYPE":"0","ARG_OF_PERICENTER":"96.6603","TLE_LINE1":"1 48278U 21036C   23180.12423031  .00015910  00000-0  10840-2 0  9992","PERIOD":"95.591","INCLINATION":"53.0529","MEAN_MOTION":"15.06418554","MEAN_MOTION_DDOT":"0.0000000000000","OBJECT_TYPE":"PAYLOAD"},{"SEMIMAJOR_AXIS":"6925.330","GP_ID":"234616551","DECAY_DATE":null,"OBJECT_NAME":"STARLINK-2580","LAUNCH_DATE":"2021-04-29","MEAN_ELEMENT_THEORY":"SGP4","REF_FRAME":"TEME","APOAPSIS":"547.936","ELEMENT_SET_NO":"999","CLASSIFICATION_TYPE":"U","RA_OF_ASC_NODE":"126.5402","COUNTRY_CODE":"US","BSTAR":"0.00101810000000","OBJECT_ID":"2021-036D","RCS_SIZE":"LARGE","REV_AT_EPOCH":"12126","OBJECT_TYPE":"PAYLOAD","MEAN_MOTION":"15.06406001","INCLINATION":"53.0534","MEAN_MOTION_DDOT":"0.0000000000000","PERIOD":"95.592","FILE":"3945401","SITE":"AFETR","PERIAPSIS":"546.454","MEAN_ANOMALY":"261.9393","ARG_OF_PERICENTER":"98.1717","TLE_LINE1":"1 48279U 21036D   23180.11685103  .00014918  00000-0  10181-2 0  9997","CENTER_NAME":"EARTH","TIME_SYSTEM":"UTC","EPHEMERIS_TYPE":"0","ECCENTRICITY":"0.00010700","MEAN_MOTION_DOT":"0.00014918","NORAD_CAT_ID":"48279","EPOCH":"2023-06-29T02:48:15.928992","TLE_LINE2":"2 48279  53.0534 126.5402 0001070  98.1717 261.9393 15.06406001121261"},{"PERIAPSIS":"546.379","MEAN_ANOMALY":"271.7691","FILE":"3946062","SITE":"AFETR","MEAN_MOTION_DOT":"0.00001931","NORAD_CAT_ID":"48280","EPOCH":"2023-06-30T12:05:18.638016","TLE_LINE2":"2 48280  53.0522 190.3085 0001198  88.3435 271.7691 15.06401694120492","ARG_OF_PERICENTER":"88.3435","TLE_LINE1":"1 48280U 21036E   23181.50368794  .00001931  00000-0  14846-3 0  9991","TIME_SYSTEM":"UTC","CENTER_NAME":"EARTH","ECCENTRICITY":"0.00011980","EPHEMERIS_TYPE":"0","PERIOD":"95.592","OBJECT_TYPE":"PAYLOAD","INCLINATION":"53.0522","MEAN_MOTION":"15.06401694","MEAN_MOTION_DDOT":"0.0000000000000","RA_OF_ASC_NODE":"190.3085","CLASSIFICATION_TYPE":"U","RCS_SIZE":"LARGE","REV_AT_EPOCH":"12049","COUNTRY_CODE":"US","BSTAR":"0.00014846000000","OBJECT_ID":"2021-036E","OBJECT_NAME":"STARLINK-2565","LAUNCH_DATE":"2021-04-29","DECAY_DATE":null,"GP_ID":"234633134","SEMIMAJOR_AXIS":"6925.343","REF_FRAME":"TEME","APOAPSIS":"548.038","ELEMENT_SET_NO":"999","MEAN_ELEMENT_THEORY":"SGP4"},{"PERIOD":"95.592","OBJECT_TYPE":"PAYLOAD","MEAN_MOTION_DDOT":"0.0000000000000","INCLINATION":"53.0533","MEAN_MOTION":"15.06400932","NORAD_CAT_ID":"48281","MEAN_MOTION_DOT":"0.00000248","TLE_LINE2":"2 48281  53.0533 176.8031 0001050  82.1673 277.9435 15.06400932120553","EPOCH":"2023-06-29T01:22:00.666624","TLE_LINE1":"1 48281U 21036F   23180.05695216  .00000248  00000-0  35527-4 0  9993","ARG_OF_PERICENTER":"82.1673","EPHEMERIS_TYPE":"0","ECCENTRICITY":"0.00010500","CENTER_NAME":"EARTH","TIME_SYSTEM":"UTC","MEAN_ANOMALY":"277.9435","PERIAPSIS":"546.484","FILE":"3945286","SITE":"AFETR","APOAPSIS":"547.938","REF_FRAME":"TEME","ELEMENT_SET_NO":"999","MEAN_ELEMENT_THEORY":"SGP4","OBJECT_NAME":"STARLINK-2520","LAUNCH_DATE":"2021-04-29","GP_ID":"234613877","DECAY_DATE":null,"SEMIMAJOR_AXIS":"6925.346","RCS_SIZE":"LARGE","REV_AT_EPOCH":"12055","COUNTRY_CODE":"US","OBJECT_ID":"2021-036F","BSTAR":"0.00003552700000","RA_OF_ASC_NODE":"176.8031","CLASSIFICATION_TYPE":"U"},{"NORAD_CAT_ID":"48282","MEAN_MOTION_DOT":"0.00000661","TLE_LINE2":"2 48282  53.0534 184.6792 0001151  87.8460 272.2660 15.06395476120390","EPOCH":"2023-06-28T10:00:27.500544","TLE_LINE1":"1 48282U 21036G   23179.41698496  .00000661  00000-0  63296-4 0  9998","ARG_OF_PERICENTER":"87.8460","EPHEMERIS_TYPE":"0","ECCENTRICITY":"0.00011510","CENTER_NAME":"EARTH","TIME_SYSTEM":"UTC","MEAN_ANOMALY":"272.2660","PERIAPSIS":"546.430","FILE":"3944835","SITE":"AFETR","PERIOD":"95.592","OBJECT_TYPE":"PAYLOAD","MEAN_MOTION_DDOT":"0.0000000000000","INCLINATION":"53.0534","MEAN_MOTION":"15.06395476","REV_AT_EPOCH":"12039","RCS_SIZE":"LARGE","COUNTRY_CODE":"US","OBJECT_ID":"2021-036G","BSTAR":"0.00006329600000","RA_OF_ASC_NODE":"184.6792","CLASSIFICATION_TYPE":"U","APOAPSIS":"548.025","REF_FRAME":"TEME","ELEMENT_SET_NO":"999","MEAN_ELEMENT_THEORY":"SGP4","OBJECT_NAME":"STARLINK-2558","LAUNCH_DATE":"2021-04-29","DECAY_DATE":null,"GP_ID":"234602496","SEMIMAJOR_AXIS":"6925.362"},{"PERIOD":"95.592","OBJECT_TYPE":"PAYLOAD","MEAN_MOTION_DDOT":"0.0000000000000","INCLINATION":"53.0538","MEAN_MOTION":"15.06399492","MEAN_ANOMALY":"275.1662","PERIAPSIS":"546.528","FILE":"3945585","SITE":"AFETR","NORAD_CAT_ID":"48283","MEAN_MOTION_DOT":"0.00000250","TLE_LINE2":"2 48283  53.0538 180.2283 0000992  84.9440 275.1662 15.06399492120543","EPOCH":"2023-06-29T09:48:14.632416","TLE_LINE1":"1 48283U 21036H   23180.40850269  .00000250  00000-0  35670-4 0  9997","ARG_OF_PERICENTER":"84.9440","EPHEMERIS_TYPE":"0","ECCENTRICITY":"0.00009920","TIME_SYSTEM":"UTC","CENTER_NAME":"EARTH","OBJECT_NAME":"STARLINK-2516","LAUNCH_DATE":"2021-04-29","SEMIMAJOR_AXIS":"6925.350","GP_ID":"234620696","DECAY_DATE":null,"APOAPSIS":"547.902","REF_FRAME":"TEME","ELEMENT_SET_NO":"999","MEAN_ELEMENT_THEORY":"SGP4","RA_OF_ASC_NODE":"180.2283","CLASSIFICATION_TYPE":"U","REV_AT_EPOCH":"12054","RCS_SIZE":"LARGE","COUNTRY_CODE":"US","OBJECT_ID":"2021-036H","BSTAR":"0.00003567000000"},{"MEAN_MOTION_DDOT":"0.0000000000000","MEAN_MOTION":"15.06401151","INCLINATION":"53.0536","OBJECT_TYPE":"PAYLOAD","PERIOD":"95.592","EPHEMERIS_TYPE":"0","ECCENTRICITY":"0.00011590","TIME_SYSTEM":"UTC","CENTER_NAME":"EARTH","TLE_LINE1":"1 48284U 21036J   23180.40481045  .00000467  00000-0  50234-4 0  9993","ARG_OF_PERICENTER":"87.9629","TLE_LINE2":"2 48284  53.0536 180.2407 0001159  87.9629 272.1493 15.06401151120532","EPOCH":"2023-06-29T09:42:55.622880","NORAD_CAT_ID":"48284","MEAN_MOTION_DOT":"0.00000467","SITE":"AFETR","FILE":"3945765","MEAN_ANOMALY":"272.1493","PERIAPSIS":"546.407","MEAN_ELEMENT_THEORY":"SGP4","ELEMENT_SET_NO":"999","APOAPSIS":"548.013","REF_FRAME":"TEME","SEMIMAJOR_AXIS":"6925.345","GP_ID":"234625236","DECAY_DATE":null,"LAUNCH_DATE":"2021-04-29","OBJECT_NAME":"STARLINK-2564","OBJECT_ID":"2021-036J","BSTAR":"0.00005023400000","COUNTRY_CODE":"US","RCS_SIZE":"LARGE","REV_AT_EPOCH":"12053","CLASSIFICATION_TYPE":"U","RA_OF_ASC_NODE":"180.2407"},{"DECAY_DATE":null,"GP_ID":"234615479","SEMIMAJOR_AXIS":"6925.349","OBJECT_NAME":"STARLINK-2548","LAUNCH_DATE":"2021-04-29","MEAN_ELEMENT_THEORY":"SGP4","APOAPSIS":"547.945","REF_FRAME":"TEME","ELEMENT_SET_NO":"999","CLASSIFICATION_TYPE":"U","RA_OF_ASC_NODE":"181.1460","COUNTRY_CODE":"US","OBJECT_ID":"2021-036K","BSTAR":"0.00004251900000","REV_AT_EPOCH":"12050","RCS_SIZE":"LARGE","OBJECT_TYPE":"PAYLOAD","MEAN_MOTION_DDOT":"0.0000000000000","MEAN_MOTION":"15.06399820","INCLINATION":"53.0534","PERIOD":"95.592","FILE":"3945358","SITE":"AFETR","MEAN_ANOMALY":"270.1314","PERIAPSIS":"546.483","TLE_LINE1":"1 48285U 21036K   23180.20114065  .00000352  00000-0  42519-4 0  9997","ARG_OF_PERICENTER":"89.9796","ECCENTRICITY":"0.00010560","EPHEMERIS_TYPE":"0","TIME_SYSTEM":"UTC","CENTER_NAME":"EARTH","NORAD_CAT_ID":"48285","MEAN_MOTION_DOT":"0.00000352","TLE_LINE2":"2 48285  53.0534 181.1460 0001056  89.9796 270.1314 15.06399820120509","EPOCH":"2023-06-29T04:49:38.552160"},{"RCS_SIZE":"LARGE","REV_AT_EPOCH":"12053","COUNTRY_CODE":"US","BSTAR":"0.00004642700000","OBJECT_ID":"2021-036L","RA_OF_ASC_NODE":"180.2779","CLASSIFICATION_TYPE":"U","REF_FRAME":"TEME","APOAPSIS":"548.048","ELEMENT_SET_NO":"999","MEAN_ELEMENT_THEORY":"SGP4","OBJECT_NAME":"STARLINK-2547","LAUNCH_DATE":"2021-04-29","GP_ID":"234620864","DECAY_DATE":null,"SEMIMAJOR_AXIS":"6925.342","MEAN_MOTION_DOT":"0.00000410","NORAD_CAT_ID":"48286","EPOCH":"2023-06-29T09:32:18.807360","TLE_LINE2":"2 48286  53.0541 180.2779 0001214  88.4867 271.6261 15.06402048120537","ARG_OF_PERICENTER":"88.4867","TLE_LINE1":"1 48286U 21036L   23180.39743990  .00000410  00000-0  46427-4 0  9990","TIME_SYSTEM":"UTC","CENTER_NAME":"EARTH","EPHEMERIS_TYPE":"0","ECCENTRICITY":"0.00012140","PERIAPSIS":"546.367","MEAN_ANOMALY":"271.6261","FILE":"3945586","SITE":"AFETR","PERIOD":"95.592","OBJECT_TYPE":"PAYLOAD","INCLINATION":"53.0541","MEAN_MOTION":"15.06402048","MEAN_MOTION_DDOT":"0.0000000000000"},{"PERIOD":"95.592","OBJECT_TYPE":"PAYLOAD","MEAN_MOTION_DDOT":"0.0000000000000","INCLINATION":"53.0535","MEAN_MOTION":"15.06396353","NORAD_CAT_ID":"48287","MEAN_MOTION_DOT":"0.00000779","TLE_LINE2":"2 48287  53.0535 175.8222 0001160  89.3473 270.7648 15.06396353120683","EPOCH":"2023-06-30T09:20:06.153504","TLE_LINE1":"1 48287U 21036M   23181.38896011  .00000779  00000-0  71215-4 0  9995","ARG_OF_PERICENTER":"89.3473","EPHEMERIS_TYPE":"0","ECCENTRICITY":"0.00011600","CENTER_NAME":"EARTH","TIME_SYSTEM":"UTC","MEAN_ANOMALY":"270.7648","PERIAPSIS":"546.421","FILE":"3946072","SITE":"AFETR","APOAPSIS":"548.028","REF_FRAME":"TEME","ELEMENT_SET_NO":"999","MEAN_ELEMENT_THEORY":"SGP4","OBJECT_NAME":"STARLINK-2566","LAUNCH_DATE":"2021-04-29","GP_ID":"234633258","SEMIMAJOR_AXIS":"6925.360","DECAY_DATE":null,"RCS_SIZE":"LARGE","REV_AT_EPOCH":"12068","COUNTRY_CODE":"US","OBJECT_ID":"2021-036M","BSTAR":"0.00007121500000","RA_OF_ASC_NODE":"175.8222","CLASSIFICATION_TYPE":"U"}];
